NORAD_CAT_ID,OBJECT_NAME,OBJECT_TYPE,EPOCH,MEAN_MOTION,ECCENTRICITY,INCLINATION,RA_OF_ASC_NODE,ARG_OF_PERICENTER,MEAN_ANOMALY,BSTAR,MEAN_MOTION_DOT,MEAN_MOTION_DDOT,TLE_LINE0,TLE_LINE1,TLE_LINE2,SEMIMAJOR_AXIS,PERIOD,APOGEE,PERIGEE,DECAYED
54792.0,STARLINK-5431,PAYLOAD,2024-03-22 02:35:19,15.08909002,0.0001608,53.2185,25.111,93.4172,266.7004,0.001545,0.00024433,0.0,0 STARLINK-5431,1 54792U 22175AL  24082.10786087  .00024433  00000-0  15450-2 0  9990,2 54792  53.2185  25.1110 0001608  93.4172 266.7004 15.08909002 69435,6917.669,95.433,540.647,538.422,0.0
54792.0,STARLINK-5431,PAYLOAD,2024-03-22 05:46:05,15.08911096,0.0001685,53.2185,24.5164,89.2088,270.9097,0.0014682,0.00023201,0.0,0 STARLINK-5431,1 54792U 22175AL  24082.24033604  .00023201  00000-0  14682-2 0  9993,2 54792  53.2185  24.5164 0001685  89.2088 270.9097 15.08911096 71619,6917.663,95.433,540.694,538.362,0.0
54792.0,STARLINK-5431,PAYLOAD,2024-03-22 20:04:35,15.08824534,6.16e-05,53.2186,21.8408,74.1835,285.9225,-0.00057617,-9.441e-05,0.0,0 STARLINK-5431,1 54792U 22175AL  24082.83651827 -.00009441  00000-0 -57617-3 0  9999,2 54792  53.2186  21.8408 0000616  74.1835 285.9225 15.08824534 69545,6917.928,95.439,540.219,539.367,0.0
54792.0,STARLINK-5431,PAYLOAD,2024-03-23 19:55:22,15.08836607,0.0001316,53.2189,17.3783,101.2553,258.8587,0.00018796,2.704e-05,0.0,0 STARLINK-5431,1 54792U 22175AL  24083.83012544  .00002704  00000-0  18796-3 0  9995,2 54792  53.2189  17.3783 0001316 101.2553 258.8587 15.08836607 69691,6917.891,95.438,540.666,538.845,0.0
54792.0,STARLINK-5431,PAYLOAD,2024-03-24 11:49:13,15.08911793,0.0001435,53.2191,14.405,102.6425,257.4727,0.0029389,0.00046888,0.0,0 STARLINK-5431,1 54792U 22175AL  24084.49251310  .00046888  00000-0  29389-2 0  9994,2 54792  53.2191  14.4050 0001435 102.6425 257.4727 15.08911793 69796,6917.661,95.433,540.519,538.533,0.0
54792.0,STARLINK-5431,PAYLOAD,2024-03-24 19:46:09,15.08837373,0.0001852,53.2181,12.9173,81.1409,278.9793,1.8753e-05,1e-07,0.0,0 STARLINK-5431,1 54792U 22175AL  24084.82372466  .00000010  00000-0  18753-4 0  9999,2 54792  53.2181  12.9173 0001852  81.1409 278.9793 15.08837373 69848,6917.888,95.438,541.035,538.472,0.0
54792.0,STARLINK-5431,PAYLOAD,2024-03-24 22:56:56,15.08857394,0.0001284,53.2189,12.3255,112.9241,247.1887,0.0029671,0.00047273,0.0,0 STARLINK-5431,1 54792U 22175AL  24084.95620403  .00047273  00000-0  29671-2 0  9991,2 54792  53.2189  12.3255 0001284 112.9241 247.1887 15.08857394 72028,6917.827,95.436,540.58,538.804,0.0
54792.0,STARLINK-5431,PAYLOAD,2024-03-25 02:07:43,15.08854054,0.0001705,53.2185,11.7283,78.8251,281.2933,0.0088017,0.00142697,0.0,0 STARLINK-5431,1 54792U 22175AL  24085.08869261  .00142697  00000-0  88017-2 0  9998,2 54792  53.2185  11.7283 0001705  78.8251 281.2933 15.08854054 69888,6917.837,95.437,540.882,538.523,0.0
54792.0,STARLINK-5431,PAYLOAD,2024-03-25 11:40:01,15.08865823,0.0001346,53.2181,9.9449,65.7259,294.3874,0.0038306,0.00061249,0.0,0 STARLINK-5431,1 54792U 22175AL  24085.48613108  .00061249  00000-0  38306-2 0  9998,2 54792  53.2181   9.9449 0001346  65.7259 294.3874 15.08865823 69943,6917.801,95.436,540.598,538.735,0.0
54792.0,STARLINK-5431,PAYLOAD,2024-03-25 22:47:45,15.08791199,0.0001481,53.2177,7.8645,62.1411,297.9731,0.0036714,0.00058549,0.0,0 STARLINK-5431,1 54792U 22175AL  24085.94983147  .00058549  00000-0  36714-2 0  9992,2 54792  53.2177   7.8645 0001481  62.1411 297.9731 15.08791199 72178,6918.03,95.441,540.919,538.87,0.0
54792.0,STARLINK-5431,PAYLOAD,2024-03-26 00:23:08,15.08797505,0.0001467,53.2179,7.5671,63.1671,296.9471,0.0039427,0.00062947,0.0,0 STARLINK-5431,1 54792U 22175AL  24086.01607351  .00062947  00000-0  39427-2 0  9992,2 54792  53.2179   7.5671 0001467  63.1671 296.9471 15.08797505 70028,6918.01,95.44,540.89,538.86,0.0
54792.0,STARLINK-5431,PAYLOAD,2024-03-26 11:30:51,15.088313,0.000152,53.2187,5.486,69.3204,290.7951,0.0024316,0.00038614,0.0,0 STARLINK-5431,1 54792U 22175AL  24086.47976012  .00038614  00000-0  24316-2 0  9990,2 54792  53.2187   5.4860 0001520  69.3204 290.7951 15.08831300 70098,6917.907,95.438,540.824,538.72,0.0
54792.0,STARLINK-5431,PAYLOAD,2024-03-26 22:38:32,15.08869682,0.000136,53.2176,3.4051,71.5194,288.5946,0.0024148,0.00038384,0.0,0 STARLINK-5431,1 54792U 22175AL  24086.94343554  .00038384  00000-0  24148-2 0  9998,2 54792  53.2176   3.4051 0001360  71.5194 288.5946 15.08869682 72322,6917.79,95.436,540.595,538.714,0.0
54792.0,STARLINK-5431,PAYLOAD,2024-03-27 11:21:36,15.08892479,0.000126,53.2174,1.0267,77.2309,282.8824,0.0016583,0.0002624,0.0,0 STARLINK-5431,1 54792U 22175AL  24087.47334109  .00026240  00000-0  16583-2 0  9995,2 54792  53.2174   1.0267 0001260  77.2309 282.8824 15.08892479 70244,6917.72,95.434,540.457,538.713,0.0
54792.0,STARLINK-5431,PAYLOAD,2024-03-27 17:43:09,15.08875365,0.0003029,53.2171,359.8367,82.2505,277.8831,0.00094505,0.00014799,0.0,0 STARLINK-5431,1 54792U 22175AL  24087.73830433  .00014799  00000-0  94505-3 0  9992,2 54792  53.2171 359.8367 0003029  82.2505 277.8831 15.08875365 70286,6917.772,95.435,541.733,537.542,0.0
54792.0,STARLINK-5431,PAYLOAD,2024-03-27 22:29:18,15.08856349,0.0001537,53.2173,358.9439,92.0753,268.0416,0.00079076,0.00012325,0.0,0 STARLINK-5431,1 54792U 22175AL  24087.93702077  .00012325  00000-0  79076-3 0  9995,2 54792  53.2173 358.9439 0001537  92.0753 268.0416 15.08856349 72479,6917.83,95.437,540.759,538.632,0.0
54792.0,STARLINK-5431,PAYLOAD,2024-03-28 03:15:28,15.08858692,0.0001377,53.2169,358.0525,94.7482,265.3668,0.0021467,0.0003406,0.0,0 STARLINK-5431,1 54792U 22175AL  24088.13574082  .00034060  00000-0  21467-2 0  9991,2 54792  53.2169 358.0525 0001377  94.7482 265.3668 15.08858692 70347,6917.823,95.436,540.641,538.736,0.0
54792.0,STARLINK-5431,PAYLOAD,2024-03-28 11:12:23,15.08872424,0.0001566,53.217,356.5652,78.1062,282.0105,0.002101,0.00033338,0.0,0 STARLINK-5431,1 54792U 22175AL  24088.46693589  .00033338  00000-0  21010-2 0  9992,2 54792  53.2170 356.5652 0001566  78.1062 282.0105 15.08872424 72559,6917.781,95.436,540.73,538.563,0.0
54792.0,STARLINK-5431,PAYLOAD,2024-03-28 17:33:56,15.0887898,0.0004357,53.2176,355.3748,81.5754,278.5732,0.0020649,0.00032768,0.0,0 STARLINK-5431,1 54792U 22175AL  24088.73190264  .00032768  00000-0  20649-2 0  9997,2 54792  53.2176 355.3748 0004357  81.5754 278.5732 15.08878980 70439,6917.761,95.435,542.64,536.612,0.0
54792.0,STARLINK-5431,PAYLOAD,2024-03-29 03:06:14,15.08849405,0.000143,53.2164,353.5919,82.9686,277.1468,0.0013341,0.00021013,0.0,0 STARLINK-5431,1 54792U 22175AL  24089.12933637  .00021013  00000-0  13341-2 0  9992,2 54792  53.2164 353.5919 0001430  82.9686 277.1468 15.08849405 70491,6917.852,95.437,540.706,538.727,0.0
54792.0,STARLINK-5431,PAYLOAD,2024-03-29 11:03:10,15.08834936,0.0001987,53.2173,352.1047,88.9185,271.2035,0.00074931,0.00011656,0.0,0 STARLINK-5431,1 54792U 22175AL  24089.46054224  .00011656  00000-0  74931-3 0  9990,2 54792  53.2173 352.1047 0001987  88.9185 271.2035 15.08834936 70549,6917.896,95.438,541.135,538.386,0.0
54792.0,STARLINK-5431,PAYLOAD,2024-03-29 22:10:53,15.0881462,0.0001547,53.2166,350.0239,101.8011,258.3154,0.0011169,0.0001752,0.0,0 STARLINK-5431,1 54792U 22175AL  24089.92423238  .00017520  00000-0  11169-2 0  9995,2 54792  53.2166 350.0239 0001547 101.8011 258.3154 15.08814620 72779,6917.958,95.439,540.893,538.753,0.0
54792.0,STARLINK-5431,PAYLOAD,2024-03-30 02:57:03,15.08815999,0.000149,53.2169,349.1317,98.4965,261.6196,0.001526,0.00024066,0.0,0 STARLINK-5431,1 54792U 22175AL  24090.12295628  .00024066  00000-0  15260-2 0  9998,2 54792  53.2169 349.1317 0001490  98.4965 261.6196 15.08815999 70641,6917.954,95.439,540.85,538.788,0.0
54792.0,STARLINK-5431,PAYLOAD,2024-03-30 20:26:17,15.08864407,0.0001414,53.2174,345.861,100.8312,259.284,0.0022257,0.00035336,0.0,0 STARLINK-5431,1 54792U 22175AL  24090.85159547  .00035336  00000-0  22257-2 0  9993,2 54792  53.2174 345.8610 0001414 100.8312 259.2840 15.08864407 70755,6917.806,95.436,540.649,538.693,0.0
54792.0,STARLINK-5431,PAYLOAD,2024-03-30 23:37:03,15.08872135,0.000134,53.2169,345.2661,98.0654,262.049,0.0020813,0.00033021,0.0,0 STARLINK-5431,1 54792U 22175AL  24090.98407239  .00033021  00000-0  20813-2 0  9996,2 54792  53.2169 345.2661 0001340  98.0654 262.0490 15.08872135 72936,6917.782,95.436,540.574,538.72,0.0
54792.0,STARLINK-5431,PAYLOAD,2024-03-31 02:47:49,15.08883345,0.0001321,53.2169,344.6715,97.4508,262.6634,0.0024089,0.00038304,0.0,0 STARLINK-5431,1 54792U 22175AL  24091.11654938  .00038304  00000-0  24089-2 0  9990,2 54792  53.2169 344.6715 0001321  97.4508 262.6634 15.08883345 72952,6917.748,95.435,540.527,538.699,0.0
54792.0,STARLINK-5431,PAYLOAD,2024-03-31 20:17:04,15.08840706,0.0001258,53.217,341.4004,36.181,323.9267,0.00020561,2.986e-05,0.0,0 STARLINK-5431,1 54792U 22175AL  24091.84518610  .00002986  00000-0  20561-3 0  9995,2 54792  53.2170 341.4004 0001258  36.1810 323.9267 15.08840706 70905,6917.878,95.438,540.614,538.873,0.0
54792.0,STARLINK-5431,PAYLOAD,2024-03-31 23:27:50,15.08847828,0.0001241,53.2169,340.8061,81.823,278.2903,0.0011997,0.00018861,0.0,0 STARLINK-5431,1 54792U 22175AL  24091.97766622  .00018861  00000-0  11997-2 0  9998,2 54792  53.2169 340.8061 0001241  81.8230 278.2903 15.08847828 73087,6917.856,95.437,540.58,538.863,0.0
54792.0,STARLINK-5431,PAYLOAD,2024-04-01 09:00:08,15.0886049,0.000117,53.2167,339.0212,79.3061,280.8063,0.0016628,0.00026289,0.0,0 STARLINK-5431,1 54792U 22175AL  24092.37510323  .00026289  00000-0  16628-2 0  9997,2 54792  53.2167 339.0212 0001170  79.3061 280.8063 15.08860490 70980,6917.818,95.436,540.492,538.873,0.0
54792.0,STARLINK-5431,PAYLOAD,2024-04-01 15:21:41,15.08855198,0.0001487,53.2182,337.8379,100.971,259.1449,0.00087448,0.00013662,0.0,0 STARLINK-5431,1 54792U 22175AL  24092.64006342  .00013662  00000-0  87448-3 0  9998,2 54792  53.2182 337.8379 0001487 100.9710 259.1449 15.08855198 73181,6917.834,95.437,540.728,538.67,0.0
